0 INTELSAT 505
1 13595U 82097A   13284.32035296 -.00000022  00000-0  10000-3 0  5149
2 13595 015.0687 012.5252 0016220 286.6027 073.2231 00.98407115 82510
0 INTELSAT 505
1 13595U 82097A   13286.35263666 -.00000053  00000-0  10000-3 0  5153
2 13595 015.0700 012.5029 0016303 286.8303 072.9865 00.98407598 82535
0 INTELSAT 505
1 13595U 82097A   13290.41714950 -.00000153  00000-0  10000-3 0  5164
2 13595 015.0730 012.4602 0016307 286.8818 072.9220 00.98409151 82575
0 INTELSAT 505
1 13595U 82097A   13292.44939842 -.00000202  00000-0  10000-3 0  5174
2 13595 015.0745 012.4394 0016294 286.6664 073.1396 00.98409871 82599
0 INTELSAT 505
1 13595U 82097A   13293.46551086 -.00000221  00000-0  10000-3 0  5189
2 13595 015.0757 012.4293 0016103 285.6684 074.1395 00.98410173 82609
